OBJECT B                
1 51825U 22019B   26078.96686145  .00049883  00000+0  55294-3 0  9992
2 51825  97.3521 166.7142 0006791 100.2813 259.9211 15.62797168225779
